[{"OBJECT_NAME":"ONEWEB-0275","OBJECT_ID":"2021-060AC","EPOCH":"2026-01-21T09:40:44.537664","MEAN_MOTION":13.16595319,"ECCENTRICITY":0.000144,"INCLINATION":87.902,"RA_OF_ASC_NODE":257.9998,"ARG_OF_PERICENTER":76.3737,"MEAN_ANOMALY":283.7554,"EPHEMERIS_TYPE":0,"CLASSIFICATION_TYPE":"U","NORAD_CAT_ID":48993,"ELEMENT_SET_NO":999,"REV_AT_EPOCH":22024,"BSTAR":-4.9665e-6,"MEAN_MOTION_DOT":1.1e-7,"MEAN_MOTION_DDOT":0},{"OBJECT_NAME":"ONEWEB-0276","OBJECT_ID":"2021-060AD","EPOCH":"2026-01-21T08:39:11.591712","MEAN_MOTION":13.1659462,"ECCENTRICITY":0.0001349,"INCLINATION":87.9025,"RA_OF_ASC_NODE":258.0084,"ARG_OF_PERICENTER":86.2246,"MEAN_ANOMALY":273.904,"EPHEMERIS_TYPE":0,"CLASSIFICATION_TYPE":"U","NORAD_CAT_ID":48994,"ELEMENT_SET_NO":999,"REV_AT_EPOCH":22025,"BSTAR":-0.00013807,"MEAN_MOTION_DOT":-4.0e-7,"MEAN_MOTION_DDOT":0},{"OBJECT_NAME":"ONEWEB-0277","OBJECT_ID":"2021-060AE","EPOCH":"2026-01-21T10:46:52.086144","MEAN_MOTION":13.16589662,"ECCENTRICITY":0.0001304,"INCLINATION":87.9012,"RA_OF_ASC_NODE":258.0108,"ARG_OF_PERICENTER":79.6631,"MEAN_ANOMALY":280.4647,"EPHEMERIS_TYPE":0,"CLASSIFICATION_TYPE":"U","NORAD_CAT_ID":48995,"ELEMENT_SET_NO":999,"REV_AT_EPOCH":22025,"BSTAR":0.0016317,"MEAN_MOTION_DOT":6.37e-6,"MEAN_MOTION_DDOT":0},{"OBJECT_NAME":"ONEWEB-0278","OBJECT_ID":"2021-060AF","EPOCH":"2026-01-21T08:43:45.002784","MEAN_MOTION":13.16595243,"ECCENTRICITY":0.000158,"INCLINATION":87.9021,"RA_OF_ASC_NODE":258.0038,"ARG_OF_PERICENTER":88.2263,"MEAN_ANOMALY":271.9049,"EPHEMERIS_TYPE":0,"CLASSIFICATION_TYPE":"U","NORAD_CAT_ID":48996,"ELEMENT_SET_NO":999,"REV_AT_EPOCH":22037,"BSTAR":-0.00023955,"MEAN_MOTION_DOT":-7.9e-7,"MEAN_MOTION_DDOT":0},{"OBJECT_NAME":"ONEWEB-0279","OBJECT_ID":"2021-060AG","EPOCH":"2026-01-21T08:55:08.394816","MEAN_MOTION":13.16596207,"ECCENTRICITY":0.0001336,"INCLINATION":87.9026,"RA_OF_ASC_NODE":258.001,"ARG_OF_PERICENTER":69.7047,"MEAN_ANOMALY":290.4227,"EPHEMERIS_TYPE":0,"CLASSIFICATION_TYPE":"U","NORAD_CAT_ID":48997,"ELEMENT_SET_NO":999,"REV_AT_EPOCH":22030,"BSTAR":0.00014306,"MEAN_MOTION_DOT":6.8e-7,"MEAN_MOTION_DDOT":0},{"OBJECT_NAME":"ONEWEB-0280","OBJECT_ID":"2021-060AH","EPOCH":"2026-01-20T15:02:27.081312","MEAN_MOTION":13.16593987,"ECCENTRICITY":0.00011762,"INCLINATION":87.9023,"RA_OF_ASC_NODE":258.1549,"ARG_OF_PERICENTER":91.6775,"MEAN_ANOMALY":268.4491,"EPHEMERIS_TYPE":0,"CLASSIFICATION_TYPE":"U","NORAD_CAT_ID":48998,"ELEMENT_SET_NO":999,"REV_AT_EPOCH":22014,"BSTAR":-0.00016804157,"MEAN_MOTION_DOT":-5.1e-7,"MEAN_MOTION_DDOT":0},{"OBJECT_NAME":"ONEWEB-0281","OBJECT_ID":"2021-060AJ","EPOCH":"2026-01-21T09:24:47.558304","MEAN_MOTION":13.16595569,"ECCENTRICITY":0.0001563,"INCLINATION":87.9022,"RA_OF_ASC_NODE":257.9973,"ARG_OF_PERICENTER":77.608,"MEAN_ANOMALY":282.5226,"EPHEMERIS_TYPE":0,"CLASSIFICATION_TYPE":"U","NORAD_CAT_ID":48999,"ELEMENT_SET_NO":999,"REV_AT_EPOCH":22031,"BSTAR":6.8487e-5,"MEAN_MOTION_DOT":3.9e-7,"MEAN_MOTION_DDOT":0},{"OBJECT_NAME":"ONEWEB-0282","OBJECT_ID":"2021-060AK","EPOCH":"2026-01-21T08:18:40.109184","MEAN_MOTION":13.1659587,"ECCENTRICITY":0.0001278,"INCLINATION":87.9019,"RA_OF_ASC_NODE":258.0173,"ARG_OF_PERICENTER":80.1217,"MEAN_ANOMALY":280.0058,"EPHEMERIS_TYPE":0,"CLASSIFICATION_TYPE":"U","NORAD_CAT_ID":49000,"ELEMENT_SET_NO":999,"REV_AT_EPOCH":22028,"BSTAR":0.00021403,"MEAN_MOTION_DOT":9.5e-7,"MEAN_MOTION_DDOT":0},{"OBJECT_NAME":"ONEWEB-0283","OBJECT_ID":"2021-060AL","EPOCH":"2026-01-21T04:23:50.149248","MEAN_MOTION":13.16595861,"ECCENTRICITY":0.0001351,"INCLINATION":87.9022,"RA_OF_ASC_NODE":258.05,"ARG_OF_PERICENTER":74.6107,"MEAN_ANOMALY":285.5173,"EPHEMERIS_TYPE":0,"CLASSIFICATION_TYPE":"U","NORAD_CAT_ID":49001,"ELEMENT_SET_NO":999,"REV_AT_EPOCH":22027,"BSTAR":0.0003061,"MEAN_MOTION_DOT":1.3e-6,"MEAN_MOTION_DDOT":0},{"OBJECT_NAME":"ONEWEB-0284","OBJECT_ID":"2021-060AM","EPOCH":"2026-01-21T09:43:01.789248","MEAN_MOTION":13.16595809,"ECCENTRICITY":0.000138,"INCLINATION":87.9023,"RA_OF_ASC_NODE":257.996,"ARG_OF_PERICENTER":95.116,"MEAN_ANOMALY":265.0128,"EPHEMERIS_TYPE":0,"CLASSIFICATION_TYPE":"U","NORAD_CAT_ID":49002,"ELEMENT_SET_NO":999,"REV_AT_EPOCH":22028,"BSTAR":0.00031966,"MEAN_MOTION_DOT":1.35e-6,"MEAN_MOTION_DDOT":0},{"OBJECT_NAME":"ONEWEB-0285","OBJECT_ID":"2021-075A","EPOCH":"2026-01-21T10:55:54.854400","MEAN_MOTION":13.12440362,"ECCENTRICITY":0.0001722,"INCLINATION":87.8934,"RA_OF_ASC_NODE":19.7905,"ARG_OF_PERICENTER":88.4195,"MEAN_ANOMALY":271.7131,"EPHEMERIS_TYPE":0,"CLASSIFICATION_TYPE":"U","NORAD_CAT_ID":49075,"ELEMENT_SET_NO":999,"REV_AT_EPOCH":21596,"BSTAR":0.00051565,"MEAN_MOTION_DOT":1.98e-6,"MEAN_MOTION_DDOT":0},{"OBJECT_NAME":"ONEWEB-0286","OBJECT_ID":"2021-075B","EPOCH":"2026-01-21T12:20:53.948256","MEAN_MOTION":13.12443978,"ECCENTRICITY":0.0001998,"INCLINATION":87.8926,"RA_OF_ASC_NODE":19.8094,"ARG_OF_PERICENTER":87.6591,"MEAN_ANOMALY":272.4766,"EPHEMERIS_TYPE":0,"CLASSIFICATION_TYPE":"U","NORAD_CAT_ID":49076,"ELEMENT_SET_NO":999,"REV_AT_EPOCH":21532,"BSTAR":0.0012968,"MEAN_MOTION_DOT":4.79e-6,"MEAN_MOTION_DDOT":0},{"OBJECT_NAME":"ONEWEB-0287","OBJECT_ID":"2021-075C","EPOCH":"2026-01-21T10:59:30.266880","MEAN_MOTION":13.17648783,"ECCENTRICITY":0.0002346,"INCLINATION":87.9089,"RA_OF_ASC_NODE":35.027,"ARG_OF_PERICENTER":96.1844,"MEAN_ANOMALY":263.9555,"EPHEMERIS_TYPE":0,"CLASSIFICATION_TYPE":"U","NORAD_CAT_ID":49077,"ELEMENT_SET_NO":999,"REV_AT_EPOCH":21430,"BSTAR":-0.00026174,"MEAN_MOTION_DOT":-8.9e-7,"MEAN_MOTION_DDOT":0},{"OBJECT_NAME":"ONEWEB-0288","OBJECT_ID":"2021-075D","EPOCH":"2026-01-21T09:57:08.304480","MEAN_MOTION":13.12442621,"ECCENTRICITY":0.0001831,"INCLINATION":87.8931,"RA_OF_ASC_NODE":19.7933,"ARG_OF_PERICENTER":91.813,"MEAN_ANOMALY":268.3209,"EPHEMERIS_TYPE":0,"CLASSIFICATION_TYPE":"U","NORAD_CAT_ID":49078,"ELEMENT_SET_NO":999,"REV_AT_EPOCH":21593,"BSTAR":-0.00045353,"MEAN_MOTION_DOT":-1.5e-6,"MEAN_MOTION_DDOT":0},{"OBJECT_NAME":"ONEWEB-0289","OBJECT_ID":"2021-075E","EPOCH":"2026-01-21T11:55:10.077888","MEAN_MOTION":13.17646992,"ECCENTRICITY":0.0001602,"INCLINATION":87.9086,"RA_OF_ASC_NODE":35.0317,"ARG_OF_PERICENTER":104.5902,"MEAN_ANOMALY":255.5407,"EPHEMERIS_TYPE":0,"CLASSIFICATION_TYPE":"U","NORAD_CAT_ID":49079,"ELEMENT_SET_NO":999,"REV_AT_EPOCH":21488,"BSTAR":-0.0002755,"MEAN_MOTION_DOT":-9.4e-7,"MEAN_MOTION_DDOT":0},{"OBJECT_NAME":"ONEWEB-0290","OBJECT_ID":"2021-075F","EPOCH":"2026-01-21T11:16:29.851680","MEAN_MOTION":13.17650133,"ECCENTRICITY":0.0001312,"INCLINATION":87.9093,"RA_OF_ASC_NODE":35.0017,"ARG_OF_PERICENTER":102.2907,"MEAN_ANOMALY":257.8372,"EPHEMERIS_TYPE":0,"CLASSIFICATION_TYPE":"U","NORAD_CAT_ID":49080,"ELEMENT_SET_NO":999,"REV_AT_EPOCH":21429,"BSTAR":0.0001241,"MEAN_MOTION_DOT":6.1e-7,"MEAN_MOTION_DDOT":0},{"OBJECT_NAME":"ONEWEB-0291","OBJECT_ID":"2021-075G","EPOCH":"2026-01-21T10:54:37.241280","MEAN_MOTION":13.17650756,"ECCENTRICITY":0.0002051,"INCLINATION":87.9095,"RA_OF_ASC_NODE":35.0128,"ARG_OF_PERICENTER":101.53,"MEAN_ANOMALY":258.6062,"EPHEMERIS_TYPE":0,"CLASSIFICATION_TYPE":"U","NORAD_CAT_ID":49081,"ELEMENT_SET_NO":999,"REV_AT_EPOCH":21428,"BSTAR":6.7332e-5,"MEAN_MOTION_DOT":3.9e-7,"MEAN_MOTION_DDOT":0},{"OBJECT_NAME":"ONEWEB-0293","OBJECT_ID":"2021-075H","EPOCH":"2026-01-21T11:31:04.173888","MEAN_MOTION":13.17651185,"ECCENTRICITY":0.0001746,"INCLINATION":87.9086,"RA_OF_ASC_NODE":35.0243,"ARG_OF_PERICENTER":96.6343,"MEAN_ANOMALY":263.4987,"EPHEMERIS_TYPE":0,"CLASSIFICATION_TYPE":"U","NORAD_CAT_ID":49082,"ELEMENT_SET_NO":999,"REV_AT_EPOCH":21431,"BSTAR":0.00020382,"MEAN_MOTION_DOT":9.2e-7,"MEAN_MOTION_DDOT":0},{"OBJECT_NAME":"ONEWEB-0294","OBJECT_ID":"2021-075J","EPOCH":"2026-01-21T11:56:40.225056","MEAN_MOTION":13.12446701,"ECCENTRICITY":0.0001556,"INCLINATION":87.8936,"RA_OF_ASC_NODE":19.7793,"ARG_OF_PERICENTER":98.1502,"MEAN_ANOMALY":261.9803,"EPHEMERIS_TYPE":0,"CLASSIFICATION_TYPE":"U","NORAD_CAT_ID":49083,"ELEMENT_SET_NO":999,"REV_AT_EPOCH":21533,"BSTAR":0.00033031,"MEAN_MOTION_DOT":1.32e-6,"MEAN_MOTION_DDOT":0},{"OBJECT_NAME":"ONEWEB-0295","OBJECT_ID":"2021-075K","EPOCH":"2026-01-21T11:29:50.650944","MEAN_MOTION":13.17647305,"ECCENTRICITY":0.0002075,"INCLINATION":87.9081,"RA_OF_ASC_NODE":35.0292,"ARG_OF_PERICENTER":99.9512,"MEAN_ANOMALY":260.1854,"EPHEMERIS_TYPE":0,"CLASSIFICATION_TYPE":"U","NORAD_CAT_ID":49084,"ELEMENT_SET_NO":999,"REV_AT_EPOCH":21427,"BSTAR":-0.0002674,"MEAN_MOTION_DOT":-9.1e-7,"MEAN_MOTION_DDOT":0},{"OBJECT_NAME":"ONEWEB-0296","OBJECT_ID":"2021-075L","EPOCH":"2026-01-21T11:27:23.757984","MEAN_MOTION":13.12441725,"ECCENTRICITY":0.000202,"INCLINATION":87.8932,"RA_OF_ASC_NODE":19.7863,"ARG_OF_PERICENTER":97.6134,"MEAN_ANOMALY":262.5224,"EPHEMERIS_TYPE":0,"CLASSIFICATION_TYPE":"U","NORAD_CAT_ID":49085,"ELEMENT_SET_NO":999,"REV_AT_EPOCH":21533,"BSTAR":-0.0010854,"MEAN_MOTION_DOT":-3.78e-6,"MEAN_MOTION_DDOT":0},{"OBJECT_NAME":"ONEWEB-0297","OBJECT_ID":"2021-075M","EPOCH":"2026-01-21T10:21:32.817312","MEAN_MOTION":13.12445456,"ECCENTRICITY":0.0001875,"INCLINATION":87.8926,"RA_OF_ASC_NODE":19.8246,"ARG_OF_PERICENTER":89.4879,"MEAN_ANOMALY":270.6464,"EPHEMERIS_TYPE":0,"CLASSIFICATION_TYPE":"U","NORAD_CAT_ID":49086,"ELEMENT_SET_NO":999,"REV_AT_EPOCH":21593,"BSTAR":0.0011513,"MEAN_MOTION_DOT":4.27e-6,"MEAN_MOTION_DDOT":0},{"OBJECT_NAME":"ONEWEB-0298","OBJECT_ID":"2021-075N","EPOCH":"2026-01-21T11:36:06.705216","MEAN_MOTION":13.17646822,"ECCENTRICITY":0.0001953,"INCLINATION":87.9083,"RA_OF_ASC_NODE":35.0246,"ARG_OF_PERICENTER":87.9657,"MEAN_ANOMALY":272.1698,"EPHEMERIS_TYPE":0,"CLASSIFICATION_TYPE":"U","NORAD_CAT_ID":49087,"ELEMENT_SET_NO":999,"REV_AT_EPOCH":21430,"BSTAR":0.00013362,"MEAN_MOTION_DOT":6.5e-7,"MEAN_MOTION_DDOT":0},{"OBJECT_NAME":"ONEWEB-0299","OBJECT_ID":"2021-075P","EPOCH":"2026-01-21T11:38:21.348384","MEAN_MOTION":13.17651207,"ECCENTRICITY":0.0001987,"INCLINATION":87.9093,"RA_OF_ASC_NODE":34.9902,"ARG_OF_PERICENTER":93.1293,"MEAN_ANOMALY":267.0066,"EPHEMERIS_TYPE":0,"CLASSIFICATION_TYPE":"U","NORAD_CAT_ID":49088,"ELEMENT_SET_NO":999,"REV_AT_EPOCH":21428,"BSTAR":0.00022284,"MEAN_MOTION_DOT":9.9e-7,"MEAN_MOTION_DDOT":0}]
